NAVSTAR 77 (USA 289)    
1 43873U 18109A   23362.65352421 -.00000002  00000+0  00000+0 0  9999
2 43873  55.2339 127.8076 0028044 191.1848 223.0182  2.00572528 36991
